CCSDS_OMM_VERS = 2.0
CREATION_DATE  = 
ORIGINATOR     = 

OBJECT_NAME    = SHIJIAN-16 (SJ-16)
OBJECT_ID      = 2013-057A
CENTER_NAME    = EARTH
REF_FRAME      = TEME
TIME_SYSTEM    = UTC
MEAN_ELEMENT_THEORY = SGP/SGP4

EPOCH          = 2025-11-22T21:18:08.581248
MEAN_MOTION    = 14.91901061
ECCENTRICITY   = .0016872
INCLINATION    = 74.9744
RA_OF_ASC_NODE = 27.2148
ARG_OF_PERICENTER = 7.1680
MEAN_ANOMALY   = 352.9746

EPHEMERIS_TYPE = 0
CLASSIFICATION_TYPE = U
NORAD_CAT_ID   = 39358
ELEMENT_SET_NO = 999
REV_AT_EPOCH   = 65557
BSTAR          = .18436E-3
MEAN_MOTION_DOT = .184E-4
MEAN_MOTION_DDOT = 0

CCSDS_OMM_VERS = 2.0
CREATION_DATE  = 
ORIGINATOR     = 

OBJECT_NAME    = SL-4 R/B
OBJECT_ID      = 2014-021B
CENTER_NAME    = EARTH
REF_FRAME      = TEME
TIME_SYSTEM    = UTC
MEAN_ELEMENT_THEORY = SGP/SGP4

EPOCH          = 2025-11-22T18:37:22.905984
MEAN_MOTION    = 15.35951686
ECCENTRICITY   = .0103349
INCLINATION    = 51.6047
RA_OF_ASC_NODE = 137.5633
ARG_OF_PERICENTER = 74.4491
MEAN_ANOMALY   = 286.7873

EPHEMERIS_TYPE = 0
CLASSIFICATION_TYPE = U
NORAD_CAT_ID   = 39679
ELEMENT_SET_NO = 999
REV_AT_EPOCH   = 63982
BSTAR          = .30383E-3
MEAN_MOTION_DOT = .12476E-3
MEAN_MOTION_DDOT = 0

CCSDS_OMM_VERS = 2.0
CREATION_DATE  = 
ORIGINATOR     = 

OBJECT_NAME    = ALOS-2
OBJECT_ID      = 2014-029A
CENTER_NAME    = EARTH
REF_FRAME      = TEME
TIME_SYSTEM    = UTC
MEAN_ELEMENT_THEORY = SGP/SGP4

EPOCH          = 2025-11-22T07:37:47.875008
MEAN_MOTION    = 14.79475260
ECCENTRICITY   = .0001309
INCLINATION    = 97.9234
RA_OF_ASC_NODE = 61.4543
ARG_OF_PERICENTER = 97.6207
MEAN_ANOMALY   = 262.5154

EPHEMERIS_TYPE = 0
CLASSIFICATION_TYPE = U
NORAD_CAT_ID   = 39766
ELEMENT_SET_NO = 999
REV_AT_EPOCH   = 62099
BSTAR          = -.67345966E-4
MEAN_MOTION_DOT = -.554E-5
MEAN_MOTION_DDOT = 0

CCSDS_OMM_VERS = 2.0
CREATION_DATE  = 
ORIGINATOR     = 

OBJECT_NAME    = YAOGAN-29
OBJECT_ID      = 2015-069A
CENTER_NAME    = EARTH
REF_FRAME      = TEME
TIME_SYSTEM    = UTC
MEAN_ELEMENT_THEORY = SGP/SGP4

EPOCH          = 2025-11-22T20:18:24.284160
MEAN_MOTION    = 14.82850343
ECCENTRICITY   = .0001532
INCLINATION    = 98.0238
RA_OF_ASC_NODE = 349.9522
ARG_OF_PERICENTER = 29.8992
MEAN_ANOMALY   = 330.2309

EPHEMERIS_TYPE = 0
CLASSIFICATION_TYPE = U
NORAD_CAT_ID   = 41038
ELEMENT_SET_NO = 999
REV_AT_EPOCH   = 54004
BSTAR          = .69756E-4
MEAN_MOTION_DOT = .511E-5
MEAN_MOTION_DDOT = 0

CCSDS_OMM_VERS = 2.0
CREATION_DATE  = 
ORIGINATOR     = 

OBJECT_NAME    = ASTRO-H (HITOMI)
OBJECT_ID      = 2016-012A
CENTER_NAME    = EARTH
REF_FRAME      = TEME
TIME_SYSTEM    = UTC
MEAN_ELEMENT_THEORY = SGP/SGP4

EPOCH          = 2025-11-22T10:51:52.585344
MEAN_MOTION    = 15.09170367
ECCENTRICITY   = .0009698
INCLINATION    = 31.0012
RA_OF_ASC_NODE = 328.1377
ARG_OF_PERICENTER = 332.5933
MEAN_ANOMALY   = 27.4193

EPHEMERIS_TYPE = 0
CLASSIFICATION_TYPE = U
NORAD_CAT_ID   = 41337
ELEMENT_SET_NO = 999
REV_AT_EPOCH   = 53601
BSTAR          = .20456E-3
MEAN_MOTION_DOT = .3426E-4
MEAN_MOTION_DDOT = 0

CCSDS_OMM_VERS = 2.0
CREATION_DATE  = 
ORIGINATOR     = 

OBJECT_NAME    = HXMT (HUIYAN)
OBJECT_ID      = 2017-034A
CENTER_NAME    = EARTH
REF_FRAME      = TEME
TIME_SYSTEM    = UTC
MEAN_ELEMENT_THEORY = SGP/SGP4

EPOCH          = 2025-11-22T21:28:09.192576
MEAN_MOTION    = 15.15978804
ECCENTRICITY   = .0034077
INCLINATION    = 43.0144
RA_OF_ASC_NODE = 249.7340
ARG_OF_PERICENTER = 279.3528
MEAN_ANOMALY   = 80.3467

EPHEMERIS_TYPE = 0
CLASSIFICATION_TYPE = U
NORAD_CAT_ID   = 42758
ELEMENT_SET_NO = 999
REV_AT_EPOCH   = 46632
BSTAR          = .33548E-3
MEAN_MOTION_DOT = .6418E-4
MEAN_MOTION_DDOT = 0

CCSDS_OMM_VERS = 2.0
CREATION_DATE  = 
ORIGINATOR     = 

OBJECT_NAME    = CZ-2C R/B
OBJECT_ID      = 2018-054D
CENTER_NAME    = EARTH
REF_FRAME      = TEME
TIME_SYSTEM    = UTC
MEAN_ELEMENT_THEORY = SGP/SGP4

EPOCH          = 2025-11-22T09:48:37.918080
MEAN_MOTION    = 15.69544755
ECCENTRICITY   = .0022109
INCLINATION    = 35.1363
RA_OF_ASC_NODE = 318.2794
ARG_OF_PERICENTER = 299.2382
MEAN_ANOMALY   = 60.6139

EPHEMERIS_TYPE = 0
CLASSIFICATION_TYPE = U
NORAD_CAT_ID   = 43521
ELEMENT_SET_NO = 999
REV_AT_EPOCH   = 41185
BSTAR          = .67988E-3
MEAN_MOTION_DOT = .85161E-3
MEAN_MOTION_DDOT = 0

CCSDS_OMM_VERS = 2.0
CREATION_DATE  = 
ORIGINATOR     = 

OBJECT_NAME    = SAOCOM 1A
OBJECT_ID      = 2018-076A
CENTER_NAME    = EARTH
REF_FRAME      = TEME
TIME_SYSTEM    = UTC
MEAN_ELEMENT_THEORY = SGP/SGP4

EPOCH          = 2025-11-22T19:46:15.210624
MEAN_MOTION    = 14.82145000
ECCENTRICITY   = .0001569
INCLINATION    = 97.8852
RA_OF_ASC_NODE = 151.5353
ARG_OF_PERICENTER = 90.9174
MEAN_ANOMALY   = 269.2219

EPHEMERIS_TYPE = 0
CLASSIFICATION_TYPE = U
NORAD_CAT_ID   = 43641
ELEMENT_SET_NO = 999
REV_AT_EPOCH   = 38553
BSTAR          = .71091E-4
MEAN_MOTION_DOT = .514E-5
MEAN_MOTION_DDOT = 0

CCSDS_OMM_VERS = 2.0
CREATION_DATE  = 
ORIGINATOR     = 

OBJECT_NAME    = H-2A R/B
OBJECT_ID      = 2018-084L
CENTER_NAME    = EARTH
REF_FRAME      = TEME
TIME_SYSTEM    = UTC
MEAN_ELEMENT_THEORY = SGP/SGP4

EPOCH          = 2025-11-22T12:12:44.373888
MEAN_MOTION    = 15.36395880
ECCENTRICITY   = .0028834
INCLINATION    = 98.8785
RA_OF_ASC_NODE = 156.4114
ARG_OF_PERICENTER = 35.3540
MEAN_ANOMALY   = 324.9604

EPHEMERIS_TYPE = 0
CLASSIFICATION_TYPE = U
NORAD_CAT_ID   = 43682
ELEMENT_SET_NO = 999
REV_AT_EPOCH   = 38929
BSTAR          = .48162E-3
MEAN_MOTION_DOT = .17246E-3
MEAN_MOTION_DDOT = 0

CCSDS_OMM_VERS = 2.0
CREATION_DATE  = 
ORIGINATOR     = 

OBJECT_NAME    = SAOCOM 1B
OBJECT_ID      = 2020-059A
CENTER_NAME    = EARTH
REF_FRAME      = TEME
TIME_SYSTEM    = UTC
MEAN_ELEMENT_THEORY = SGP/SGP4

EPOCH          = 2025-11-22T20:31:17.364576
MEAN_MOTION    = 14.82153752
ECCENTRICITY   = .0001341
INCLINATION    = 97.8847
RA_OF_ASC_NODE = 150.6677
ARG_OF_PERICENTER = 90.5162
MEAN_ANOMALY   = 269.6204

EPHEMERIS_TYPE = 0
CLASSIFICATION_TYPE = U
NORAD_CAT_ID   = 46265
ELEMENT_SET_NO = 999
REV_AT_EPOCH   = 28292
BSTAR          = .69697E-4
MEAN_MOTION_DOT = .503E-5
MEAN_MOTION_DDOT = 0

CCSDS_OMM_VERS = 2.0
CREATION_DATE  = 
ORIGINATOR     = 

OBJECT_NAME    = CSS (TIANHE)
OBJECT_ID      = 2021-035A
CENTER_NAME    = EARTH
REF_FRAME      = TEME
TIME_SYSTEM    = UTC
MEAN_ELEMENT_THEORY = SGP/SGP4

EPOCH          = 2025-11-22T17:21:33.799104
MEAN_MOTION    = 15.59449506
ECCENTRICITY   = .0007797
INCLINATION    = 41.4656
RA_OF_ASC_NODE = 138.1313
ARG_OF_PERICENTER = 219.2110
MEAN_ANOMALY   = 140.8164

EPHEMERIS_TYPE = 0
CLASSIFICATION_TYPE = U
NORAD_CAT_ID   = 48274
ELEMENT_SET_NO = 999
REV_AT_EPOCH   = 26090
BSTAR          = .23296E-3
MEAN_MOTION_DOT = .18705E-3
MEAN_MOTION_DDOT = 0

CCSDS_OMM_VERS = 2.0
CREATION_DATE  = 
ORIGINATOR     = 

OBJECT_NAME    = COSMOS 2550
OBJECT_ID      = 2021-056A
CENTER_NAME    = EARTH
REF_FRAME      = TEME
TIME_SYSTEM    = UTC
MEAN_ELEMENT_THEORY = SGP/SGP4

EPOCH          = 2025-11-22T20:06:17.795808
MEAN_MOTION    = 15.33758996
ECCENTRICITY   = .0008273
INCLINATION    = 67.1435
RA_OF_ASC_NODE = 4.1335
ARG_OF_PERICENTER = 267.9997
MEAN_ANOMALY   = 92.0210

EPHEMERIS_TYPE = 0
CLASSIFICATION_TYPE = U
NORAD_CAT_ID   = 48865
ELEMENT_SET_NO = 999
REV_AT_EPOCH   = 24707
BSTAR          = .61386E-5
MEAN_MOTION_DOT = .1E-6
MEAN_MOTION_DDOT = 0

