SHIJIAN-16 (SJ-16)      
1 39358U 13057A   25326.88759932  .00001840  00000+0  18436-3 0  9990
2 39358  74.9744  27.2148 0016872   7.1680 352.9746 14.91901061655571
SL-4 R/B                
1 39679U 14021B   25326.77595956  .00012476  00000+0  30383-3 0  9992
2 39679  51.6047 137.5633 0103349  74.4491 286.7873 15.35951686639824
ALOS-2                  
1 39766U 14029A   25326.31791522 -.00000554  00000+0 -67346-4 0  9990
2 39766  97.9234  61.4543 0001309  97.6207 262.5154 14.79475260620990
YAOGAN-29               
1 41038U 15069A   25326.84611440  .00000511  00000+0  69756-4 0  9996
2 41038  98.0238 349.9522 0001532  29.8992 330.2309 14.82850343540043
ASTRO-H (HITOMI)        
1 41337U 16012A   25326.45269196  .00003426  00000+0  20456-3 0  9992
2 41337  31.0012 328.1377 0009698 332.5933  27.4193 15.09170367536018
HXMT (HUIYAN)           
1 42758U 17034A   25326.89455084  .00006418  00000+0  33548-3 0  9996
2 42758  43.0144 249.7340 0034077 279.3528  80.3467 15.15978804466327
CZ-2C R/B               
1 43521U 18054D   25326.40877220  .00085161  00000+0  67988-3 0  9992
2 43521  35.1363 318.2794 0022109 299.2382  60.6139 15.69544755411856
SAOCOM 1A               
1 43641U 18076A   25326.82378716  .00000514  00000+0  71091-4 0  9991
2 43641  97.8852 151.5353 0001569  90.9174 269.2219 14.82145000385533
H-2A R/B                
1 43682U 18084L   25326.50884692  .00017246  00000+0  48162-3 0  9997
2 43682  98.8785 156.4114 0028834  35.3540 324.9604 15.36395880389294
SAOCOM 1B               
1 46265U 20059A   25326.85506209  .00000503  00000+0  69697-4 0  9990
2 46265  97.8847 150.6677 0001341  90.5162 269.6204 14.82153752282922
CSS (TIANHE)            
1 48274U 21035A   25326.72330786  .00018705  00000+0  23296-3 0  9995
2 48274  41.4656 138.1313 0007797 219.2110 140.8164 15.59449506260908
COSMOS 2550             
1 48865U 21056A   25326.83770597  .00000010  00000+0  61386-5 0  9998
2 48865  67.1435   4.1335 0008273 267.9997  92.0210 15.33758996247074
